[{"OBJECT_NAME":"CONTINUUM-1","OBJECT_ID":"2023-001AN","EPOCH":"2026-03-09T23:17:35.458656","MEAN_MOTION":15.27981258,"ECCENTRICITY":0.00109493,"INCLINATION":97.3456,"RA_OF_ASC_NODE":133.3964,"ARG_OF_PERICENTER":60.1976,"MEAN_ANOMALY":300.0351,"EPHEMERIS_TYPE":0,"CLASSIFICATION_TYPE":"U","NORAD_CAT_ID":55045,"ELEMENT_SET_NO":999,"REV_AT_EPOCH":17709,"BSTAR":0.00052859897,"MEAN_MOTION_DOT":0.00014395,"MEAN_MOTION_DDOT":0},{"OBJECT_NAME":"STARLINK-31878","OBJECT_ID":"2024-111R","EPOCH":"2026-03-09T07:34:17.681088","MEAN_MOTION":15.30188515,"ECCENTRICITY":0.00015111,"INCLINATION":53.1621,"RA_OF_ASC_NODE":25.5912,"ARG_OF_PERICENTER":87.9498,"MEAN_ANOMALY":272.1676,"EPHEMERIS_TYPE":0,"CLASSIFICATION_TYPE":"U","NORAD_CAT_ID":60031,"ELEMENT_SET_NO":999,"REV_AT_EPOCH":9945,"BSTAR":-2.7418536e-5,"MEAN_MOTION_DOT":-1.171e-5,"MEAN_MOTION_DDOT":0}]
